[{"OBJECT_NAME":"STARLINK-31704","OBJECT_ID":"2024-076Y","EPOCH":"2026-03-09T22:00:01.999584","MEAN_MOTION":15.30892355,"ECCENTRICITY":0.00079744,"INCLINATION":42.9978,"RA_OF_ASC_NODE":323.2923,"ARG_OF_PERICENTER":240.5046,"MEAN_ANOMALY":200.4144,"EPHEMERIS_TYPE":0,"CLASSIFICATION_TYPE":"U","NORAD_CAT_ID":59586,"ELEMENT_SET_NO":999,"REV_AT_EPOCH":581,"BSTAR":0.0024766131,"MEAN_MOTION_DOT":0.00076042,"MEAN_MOTION_DDOT":0},{"OBJECT_NAME":"STARLINK-34167","OBJECT_ID":"2025-117AB","EPOCH":"2026-03-09T21:45:28.226016","MEAN_MOTION":15.3020776,"ECCENTRICITY":0.0001621,"INCLINATION":53.1625,"RA_OF_ASC_NODE":38.249,"ARG_OF_PERICENTER":140.5411,"MEAN_ANOMALY":219.5708,"EPHEMERIS_TYPE":0,"CLASSIFICATION_TYPE":"U","NORAD_CAT_ID":64228,"ELEMENT_SET_NO":999,"REV_AT_EPOCH":4459,"BSTAR":0.00068623604,"MEAN_MOTION_DOT":0.00020025,"MEAN_MOTION_DDOT":0}]
